start=new Date('2022-05-10T00:00:00.000Z').valueOf();
sats=[{"ELEMENT_SET_NO":"999","MEAN_MOTION":"15.06422073","ARG_OF_PERICENTER":"60.8948","DECAY_DATE":null,"OBJECT_TYPE":"PAYLOAD","GP_ID":"203143106","CLASSIFICATION_TYPE":"U","MEAN_ELEMENT_THEORY":"SGP4","PERIOD":"95.591","MEAN_MOTION_DOT":"-0.00043727","RCS_SIZE":"LARGE","TLE_LINE2":"2 48693  53.0531 245.4484 0001517  60.8948 155.2508 15.06422073  3592","REF_FRAME":"TEME","SITE":"AFETR","OBJECT_NAME":"STARLINK-2618","LAUNCH_DATE":"2021-05-26","OBJECT_ID":"2021-044BH","EPOCH":"2022-05-09T22:00:00.999936","COUNTRY_CODE":"US","APOAPSIS":"548.196","NORAD_CAT_ID":"48693","REV_AT_EPOCH":"359","FILE":"3438010","TIME_SYSTEM":"UTC","EPHEMERIS_TYPE":"0","CENTER_NAME":"EARTH","MEAN_ANOMALY":"155.2508","RA_OF_ASC_NODE":"245.4484","TLE_LINE1":"1 48693U 21044BH  22129.91667824 -.00043727  00000-0 -29330-2 0  9994","INCLINATION":"53.0531","ECCENTRICITY":"0.00015170","PERIAPSIS":"546.095","SEMIMAJOR_AXIS":"6925.281","BSTAR":"-0.00293300000000","MEAN_MOTION_DDOT":"0.0000000000000"},{"BSTAR":"-0.00386110000000","PERIAPSIS":"545.923","SEMIMAJOR_AXIS":"6925.241","MEAN_MOTION_DDOT":"0.0000000000000","INCLINATION":"53.0537","ECCENTRICITY":"0.00017080","MEAN_ANOMALY":"337.2202","CENTER_NAME":"EARTH","EPHEMERIS_TYPE":"0","TIME_SYSTEM":"UTC","TLE_LINE1":"1 48694U 21044BJ  22129.91667824 -.00057386  00000-0 -38611-2 0  9993","RA_OF_ASC_NODE":"250.4471","REV_AT_EPOCH":"360","NORAD_CAT_ID":"48694","APOAPSIS":"548.288","FILE":"3438010","OBJECT_ID":"2021-044BJ","COUNTRY_CODE":"US","EPOCH":"2022-05-09T22:00:00.999936","OBJECT_NAME":"STARLINK-2748","SITE":"AFETR","LAUNCH_DATE":"2021-05-26","REF_FRAME":"TEME","TLE_LINE2":"2 48694  53.0537 250.4471 0001708  46.3079 337.2202 15.06435218  3607","MEAN_ELEMENT_THEORY":"SGP4","CLASSIFICATION_TYPE":"U","GP_ID":"203141367","MEAN_MOTION_DOT":"-0.00057386","RCS_SIZE":"LARGE","PERIOD":"95.590","MEAN_MOTION":"15.06435218","ARG_OF_PERICENTER":"46.3079","ELEMENT_SET_NO":"999","OBJECT_TYPE":"PAYLOAD","DECAY_DATE":null},{"OBJECT_NAME":"STARLINK-2616","SITE":"AFETR","LAUNCH_DATE":"2021-05-26","REF_FRAME":"TEME","TLE_LINE2":"2 48695  53.0537 250.4456 0001523  51.8895 236.7468 15.06412333  3591","COUNTRY_CODE":"US","EPOCH":"2022-05-09T22:00:00.999936","OBJECT_ID":"2021-044BK","DECAY_DATE":null,"OBJECT_TYPE":"PAYLOAD","MEAN_MOTION":"15.06412333","ARG_OF_PERICENTER":"51.8895","ELEMENT_SET_NO":"999","MEAN_MOTION_DOT":"-0.00041438","RCS_SIZE":"LARGE","PERIOD":"95.591","MEAN_ELEMENT_THEORY":"SGP4","CLASSIFICATION_TYPE":"U","GP_ID":"203142115","ECCENTRICITY":"0.00015230","INCLINATION":"53.0537","MEAN_MOTION_DDOT":"0.0000000000000","BSTAR":"-0.00277830000000","SEMIMAJOR_AXIS":"6925.311","PERIAPSIS":"546.121","FILE":"3438010","REV_AT_EPOCH":"359","APOAPSIS":"548.230","NORAD_CAT_ID":"48695","TLE_LINE1":"1 48695U 21044BK  22129.91667824 -.00041438  00000-0 -27783-2 0  9993","RA_OF_ASC_NODE":"250.4456","MEAN_ANOMALY":"236.7468","CENTER_NAME":"EARTH","EPHEMERIS_TYPE":"0","TIME_SYSTEM":"UTC"},{"ARG_OF_PERICENTER":"66.0488","MEAN_MOTION":"15.06390253","ELEMENT_SET_NO":"999","DECAY_DATE":null,"OBJECT_TYPE":"PAYLOAD","GP_ID":"203142368","MEAN_ELEMENT_THEORY":"SGP4","CLASSIFICATION_TYPE":"U","PERIOD":"95.593","RCS_SIZE":"LARGE","MEAN_MOTION_DOT":"0.00001014","TLE_LINE2":"2 48696  53.0539 256.6448 0001472  66.0488 294.0655 15.06390253 53116","OBJECT_NAME":"STARLINK-2753","SITE":"AFETR","LAUNCH_DATE":"2021-05-26","REF_FRAME":"TEME","OBJECT_ID":"2021-044BL","COUNTRY_CODE":"US","EPOCH":"2022-05-09T15:49:34.980960","NORAD_CAT_ID":"48696","APOAPSIS":"548.263","REV_AT_EPOCH":"5311","FILE":"3438010","EPHEMERIS_TYPE":"0","TIME_SYSTEM":"UTC","MEAN_ANOMALY":"294.0655","CENTER_NAME":"EARTH","RA_OF_ASC_NODE":"256.6448","TLE_LINE1":"1 48696U 21044BL  22129.65943265  .00001014  00000-0  86969-4 0  9998","INCLINATION":"53.0539","ECCENTRICITY":"0.00014720","SEMIMAJOR_AXIS":"6925.378","PERIAPSIS":"546.224","BSTAR":"0.00008696900000","MEAN_MOTION_DDOT":"0.0000000000000"},{"SITE":"AFETR","OBJECT_NAME":"STARLINK-2715","LAUNCH_DATE":"2021-05-26","REF_FRAME":"TEME","TLE_LINE2":"2 48697  53.0546 256.1841 0001588  54.3377 305.7760 15.06401263 53124","OBJECT_ID":"2021-044BM","COUNTRY_CODE":"US","EPOCH":"2022-05-09T18:07:33.445344","ARG_OF_PERICENTER":"54.3377","MEAN_MOTION":"15.06401263","ELEMENT_SET_NO":"999","OBJECT_TYPE":"PAYLOAD","DECAY_DATE":null,"MEAN_ELEMENT_THEORY":"SGP4","CLASSIFICATION_TYPE":"U","GP_ID":"203142607","RCS_SIZE":"LARGE","MEAN_MOTION_DOT":"0.00000562","PERIOD":"95.592","INCLINATION":"53.0546","ECCENTRICITY":"0.00015880","BSTAR":"0.00005661200000","SEMIMAJOR_AXIS":"6925.345","PERIAPSIS":"546.110","MEAN_MOTION_DDOT":"0.0000000000000","REV_AT_EPOCH":"5312","NORAD_CAT_ID":"48697","APOAPSIS":"548.309","FILE":"3438010","MEAN_ANOMALY":"305.7760","CENTER_NAME":"EARTH","EPHEMERIS_TYPE":"0","TIME_SYSTEM":"UTC","TLE_LINE1":"1 48697U 21044BM  22129.75524821  .00000562  00000-0  56612-4 0  9992","RA_OF_ASC_NODE":"256.1841"},{"APOAPSIS":"520.959","NORAD_CAT_ID":"48879","REV_AT_EPOCH":"4868","FILE":"3437477","EPHEMERIS_TYPE":"0","TIME_SYSTEM":"UTC","MEAN_ANOMALY":"161.1944","CENTER_NAME":"EARTH","RA_OF_ASC_NODE":"260.9369","TLE_LINE1":"1 48879U 21059A   22129.91667824 -.00009269  00000-0 -47576-3 0  9992","INCLINATION":"97.5360","ECCENTRICITY":"0.00057120","PERIAPSIS":"513.082","SEMIMAJOR_AXIS":"6895.155","BSTAR":"-0.00047576000000","MEAN_MOTION_DDOT":"0.0000000000000","ARG_OF_PERICENTER":"158.3764","MEAN_MOTION":"15.16305471","ELEMENT_SET_NO":"999","DECAY_DATE":null,"OBJECT_TYPE":"PAYLOAD","GP_ID":"203107653","MEAN_ELEMENT_THEORY":"SGP4","CLASSIFICATION_TYPE":"U","PERIOD":"94.968","RCS_SIZE":"LARGE","MEAN_MOTION_DOT":"-0.00009269","TLE_LINE2":"2 48879  97.5360 260.9369 0005712 158.3764 161.1944 15.16305471 48687","LAUNCH_DATE":"2021-06-30","SITE":"AFETR","OBJECT_NAME":"STARLINK-3003","REF_FRAME":"TEME","OBJECT_ID":"2021-059A","COUNTRY_CODE":"US","EPOCH":"2022-05-09T22:00:00.999936"},{"TLE_LINE1":"1 48880U 21059B   22129.91667824 -.00009321  00000-0 -47900-3 0  9994","RA_OF_ASC_NODE":"260.9395","MEAN_ANOMALY":"182.5455","CENTER_NAME":"EARTH","EPHEMERIS_TYPE":"0","TIME_SYSTEM":"UTC","FILE":"3438010","REV_AT_EPOCH":"360","APOAPSIS":"521.130","NORAD_CAT_ID":"48880","MEAN_MOTION_DDOT":"0.0000000000000","BSTAR":"-0.00047900000000","SEMIMAJOR_AXIS":"6895.274","PERIAPSIS":"513.148","ECCENTRICITY":"0.00057880","INCLINATION":"97.5356","MEAN_MOTION_DOT":"-0.00009321","RCS_SIZE":"LARGE","PERIOD":"94.970","MEAN_ELEMENT_THEORY":"SGP4","CLASSIFICATION_TYPE":"U","GP_ID":"203142888","DECAY_DATE":null,"OBJECT_TYPE":"PAYLOAD","MEAN_MOTION":"15.16266187","ARG_OF_PERICENTER":"155.3925","ELEMENT_SET_NO":"999","COUNTRY_CODE":"US","EPOCH":"2022-05-09T22:00:00.999936","OBJECT_ID":"2021-059B","SITE":"AFETR","LAUNCH_DATE":"2021-06-30","OBJECT_NAME":"STARLINK-3004","REF_FRAME":"TEME","TLE_LINE2":"2 48880  97.5356 260.9395 0005788 155.3925 182.5455 15.16266187  3609"},{"EPOCH":"2022-05-09T22:00:00.999936","COUNTRY_CODE":"US","OBJECT_ID":"2021-059C","REF_FRAME":"TEME","SITE":"AFETR","LAUNCH_DATE":"2021-06-30","OBJECT_NAME":"STARLINK-3005","TLE_LINE2":"2 48881  97.5360 260.9585 0005532 147.5465 187.2389 15.16417925  3601","RCS_SIZE":"LARGE","MEAN_MOTION_DOT":"-0.00007676","PERIOD":"94.961","CLASSIFICATION_TYPE":"U","MEAN_ELEMENT_THEORY":"SGP4","GP_ID":"203143642","DECAY_DATE":null,"OBJECT_TYPE":"PAYLOAD","ELEMENT_SET_NO":"999","MEAN_MOTION":"15.16417925","ARG_OF_PERICENTER":"147.5465","MEAN_MOTION_DDOT":"0.0000000000000","BSTAR":"-0.00039210000000","SEMIMAJOR_AXIS":"6894.814","PERIAPSIS":"512.865","ECCENTRICITY":"0.00055320","INCLINATION":"97.5360","TLE_LINE1":"1 48881U 21059C   22129.91667824 -.00007676  00000-0 -39210-3 0  9991","RA_OF_ASC_NODE":"260.9585","CENTER_NAME":"EARTH","MEAN_ANOMALY":"187.2389","TIME_SYSTEM":"UTC","EPHEMERIS_TYPE":"0","FILE":"3438010","REV_AT_EPOCH":"360","APOAPSIS":"520.493","NORAD_CAT_ID":"48881"},{"OBJECT_ID":"2021-082B","EPOCH":"2022-05-09T22:00:00.999936","COUNTRY_CODE":"US","REF_FRAME":"TEME","SITE":"AFWTR","OBJECT_NAME":"STARLINK-3096","LAUNCH_DATE":"2021-09-14","TLE_LINE2":"2 49131  69.9999 184.2761 0003155 270.9671 258.3656 15.15110475  3633","CLASSIFICATION_TYPE":"U","MEAN_ELEMENT_THEORY":"SGP4","GP_ID":"203143416","MEAN_MOTION_DOT":"-0.00555573","RCS_SIZE":"LARGE","PERIOD":"95.043","ELEMENT_SET_NO":"999","ARG_OF_PERICENTER":"270.9671","MEAN_MOTION":"15.15110475","DECAY_DATE":null,"OBJECT_TYPE":"PAYLOAD","BSTAR":"-0.03155600000000","PERIAPSIS":"518.469","SEMIMAJOR_AXIS":"6898.780","MEAN_MOTION_DDOT":"0.0000000000000","INCLINATION":"69.9999","ECCENTRICITY":"0.00031550","CENTER_NAME":"EARTH","MEAN_ANOMALY":"258.3656","TIME_SYSTEM":"UTC","EPHEMERIS_TYPE":"0","TLE_LINE1":"1 49131U 21082B   22129.91667824 -.00555573  00000-0 -31556-1 0  9993","RA_OF_ASC_NODE":"184.2761","REV_AT_EPOCH":"363","NORAD_CAT_ID":"49131","APOAPSIS":"522.822","FILE":"3438010"},{"INCLINATION":"70.0003","ECCENTRICITY":"0.00033000","SEMIMAJOR_AXIS":"6950.030","PERIAPSIS":"569.601","BSTAR":"-0.00710810000000","MEAN_MOTION_DDOT":"0.0000000000000","APOAPSIS":"574.188","NORAD_CAT_ID":"49132","REV_AT_EPOCH":"358","FILE":"3438010","TIME_SYSTEM":"UTC","EPHEMERIS_TYPE":"0","CENTER_NAME":"EARTH","MEAN_ANOMALY":"152.0267","RA_OF_ASC_NODE":"223.7689","TLE_LINE1":"1 49132U 21082C   22129.91667824 -.00084014  00000-0 -71081-2 0  9999","TLE_LINE2":"2 49132  70.0003 223.7689 0003300 279.5443 152.0267 14.98382784  3581","REF_FRAME":"TEME","SITE":"AFWTR","OBJECT_NAME":"STARLINK-3090","LAUNCH_DATE":"2021-09-14","OBJECT_ID":"2021-082C","EPOCH":"2022-05-09T22:00:00.999936","COUNTRY_CODE":"US","ELEMENT_SET_NO":"999","MEAN_MOTION":"14.98382784","ARG_OF_PERICENTER":"279.5443","OBJECT_TYPE":"PAYLOAD","DECAY_DATE":null,"GP_ID":"203144170","CLASSIFICATION_TYPE":"U","MEAN_ELEMENT_THEORY":"SGP4","PERIOD":"96.104","MEAN_MOTION_DOT":"-0.00084014","RCS_SIZE":"LARGE"}];
